O3B FM17                
1 44114U 19020C   26065.57539843 -.00000026  00000+0  00000+0 0  9996
2 44114   0.0391 340.3538 0002682   0.1181  19.5126  5.00115478126389
O3B FM18                
1 44115U 19020D   26062.52332968 -.00000028  00000+0  00000+0 0  9990
2 44115   0.0519   0.0145 0002751 341.7220  18.2467  5.00115242126362
SES-17                  
1 49332U 21095A   26065.56830236 -.00000276  00000+0  00000+0 0  9994
2 49332   0.0246  64.0770 0001017 288.2344 309.4552  1.00270147 16826
SES-22                  
1 52933U 22071A   26065.52197579  .00000000  00000+0  00000+0 0  9996
2 52933   0.0176 158.0601 0001050 187.6317 227.4684  1.00269342  6497
SES-20                  
1 53960U 22123A   26064.33517131 -.00000109  00000+0  00000+0 0  9994
2 53960   0.0163 109.4128 0001608 314.8769 116.3178  1.00271408 12499
SES-21                  
1 53961U 22123B   26064.82555892  .00000063  00000+0  00000+0 0  9993
2 53961   0.0276  67.6455 0001240 275.9781 346.1336  1.00273615  6175
O3B MPOWER F1           
1 54755U 22174A   26065.47410298 -.00000026  00000+0  00000+0 0  9993
2 54755   0.0639 350.8324 0005195  11.1049 132.3969  5.00103106 60226
O3B MPOWER F2           
1 54756U 22174B   26062.53384886 -.00000028  00000+0  00000+0 0  9993
2 54756   0.1272 326.2177 0046125  76.0907 318.0389  5.00690325 60150
SES-18                  
1 55970U 23038A   26065.48987639 -.00000105  00000+0  00000+0 0  9990
2 55970   0.0549 272.3494 0002329  39.3545 285.7480  1.00272241 11074
SES-19                  
1 55971U 23038B   26065.41222271  .00000083  00000+0  00000+0 0  9992
2 55971   0.0491 290.0994 0001702  54.8939 192.6323  1.00273417 11052
O3B MPOWER F4           
1 56367U 23059A   26048.24074746 -.00000015  00000+0  00000+0 0  9995
2 56367   0.0593   7.9241 0006460 334.3658  17.6828  5.00119607 52601
O3B MPOWER F5           
1 58346U 23175A   26065.56464009 -.00000026  00000+0  00000+0 0  9994
2 58346   0.0401   3.3944 0004144 347.0397   9.5528  5.00115725 44296
ASTRA 1P (SES-24)       
1 60086U 24115A   26063.37128004  .00000108  00000+0  00000+0 0  9992
2 60086   0.0597 335.5167 0005274 347.3044 352.1506  1.00273834  6147
O3B MPOWER F7           
1 62362U 24244A   26065.73152715 -.00000026  00000+0  00000+0 0  9992
2 62362   0.0700   4.6446 0006134 339.8591  15.4724  5.00115235 21406
O3B MPOWER F8           
1 62363U 24244B   26065.69850950 -.00000026  00000+0  00000+0 0  9994
2 62363   0.0515 316.4699 0006611  21.5615  21.9351  5.00115739 15744
